start=new Date('2022-02-18T00:00:00.000Z').valueOf();
sats=[{"NORAD_CAT_ID":"49759","MEAN_ANOMALY":"66.9531","CLASSIFICATION_TYPE":"U","OBJECT_NAME":"STARLINK-3204","EPOCH":"2022-02-17T22:00:00.999936","PERIAPSIS":"442.819","SEMIMAJOR_AXIS":"6822.849","MEAN_ELEMENT_THEORY":"SGP4","EPHEMERIS_TYPE":"0","RCS_SIZE":"LARGE","PERIOD":"93.478","SITE":"AFETR","MEAN_MOTION_DOT":"-0.00057566","OBJECT_ID":"2021-115AM","ARG_OF_PERICENTER":"23.2745","BSTAR":"-0.00139980000000","MEAN_MOTION":"15.40473161","TLE_LINE1":"1 49759U 21115AM  22048.91667824 -.00057566  00000-0 -13998-2 0  9996","LAUNCH_DATE":"2021-12-02","GP_ID":"196246118","APOAPSIS":"446.609","INCLINATION":"53.2181","RA_OF_ASC_NODE":"314.6460","MEAN_MOTION_DDOT":"0.0000000000000","TLE_LINE2":"2 49759  53.2181 314.6460 0002777  23.2745  66.9531 15.40473161  3652","REV_AT_EPOCH":"365","DECAY_DATE":null,"OBJECT_TYPE":"PAYLOAD","COUNTRY_CODE":"US","CENTER_NAME":"EARTH","ECCENTRICITY":"0.00027770","REF_FRAME":"TEME","TIME_SYSTEM":"UTC","FILE":"3305402","ELEMENT_SET_NO":"999"},{"TIME_SYSTEM":"UTC","FILE":"3305402","ELEMENT_SET_NO":"999","CENTER_NAME":"EARTH","COUNTRY_CODE":"US","REF_FRAME":"TEME","ECCENTRICITY":"0.00024460","REV_AT_EPOCH":"361","TLE_LINE2":"2 49760  53.2174 314.6518 0002446  22.7078  62.2484 15.40455603  3619","DECAY_DATE":null,"OBJECT_TYPE":"PAYLOAD","MEAN_MOTION_DDOT":"0.0000000000000","RA_OF_ASC_NODE":"314.6518","LAUNCH_DATE":"2021-12-02","TLE_LINE1":"1 49760U 21115AN  22048.91667824 -.00045785  00000-0 -11103-2 0  9994","MEAN_MOTION":"15.40455603","INCLINATION":"53.2174","APOAPSIS":"446.435","GP_ID":"196245367","MEAN_MOTION_DOT":"-0.00045785","BSTAR":"-0.00111030000000","ARG_OF_PERICENTER":"22.7078","OBJECT_ID":"2021-115AN","SEMIMAJOR_AXIS":"6822.901","MEAN_ELEMENT_THEORY":"SGP4","SITE":"AFETR","PERIOD":"93.479","EPHEMERIS_TYPE":"0","RCS_SIZE":"MEDIUM","CLASSIFICATION_TYPE":"U","MEAN_ANOMALY":"62.2484","NORAD_CAT_ID":"49760","EPOCH":"2022-02-17T22:00:00.999936","PERIAPSIS":"443.097","OBJECT_NAME":"STARLINK-3199"},{"CENTER_NAME":"EARTH","COUNTRY_CODE":"US","REF_FRAME":"TEME","ECCENTRICITY":"0.00026230","TIME_SYSTEM":"UTC","ELEMENT_SET_NO":"999","FILE":"3305402","RA_OF_ASC_NODE":"314.6492","MEAN_MOTION_DDOT":"0.0000000000000","TLE_LINE2":"2 49761  53.2178 314.6492 0002623  18.7442  69.4108 15.40478783  3652","REV_AT_EPOCH":"365","DECAY_DATE":null,"OBJECT_TYPE":"PAYLOAD","MEAN_MOTION_DOT":"-0.00033145","OBJECT_ID":"2021-115AP","ARG_OF_PERICENTER":"18.7442","BSTAR":"-0.00079908000000","LAUNCH_DATE":"2021-12-02","TLE_LINE1":"1 49761U 21115AP  22048.91667824 -.00033145  00000-0 -79908-3 0  9990","MEAN_MOTION":"15.40478783","GP_ID":"196245117","APOAPSIS":"446.487","INCLINATION":"53.2178","NORAD_CAT_ID":"49761","CLASSIFICATION_TYPE":"U","MEAN_ANOMALY":"69.4108","OBJECT_NAME":"STARLINK-3203","PERIAPSIS":"442.908","EPOCH":"2022-02-17T22:00:00.999936","SEMIMAJOR_AXIS":"6822.832","MEAN_ELEMENT_THEORY":"SGP4","PERIOD":"93.477","EPHEMERIS_TYPE":"0","RCS_SIZE":"LARGE","SITE":"AFETR"},{"DECAY_DATE":null,"TLE_LINE2":"2 49762  53.2178 314.6581 0002470  26.0068  56.8255 15.40511657  3615","REV_AT_EPOCH":"361","OBJECT_TYPE":"PAYLOAD","RA_OF_ASC_NODE":"314.6581","MEAN_MOTION_DDOT":"0.0000000000000","TIME_SYSTEM":"UTC","ELEMENT_SET_NO":"999","FILE":"3305402","COUNTRY_CODE":"US","CENTER_NAME":"EARTH","ECCENTRICITY":"0.00024700","REF_FRAME":"TEME","MEAN_ELEMENT_THEORY":"SGP4","SEMIMAJOR_AXIS":"6822.735","RCS_SIZE":"LARGE","EPHEMERIS_TYPE":"0","PERIOD":"93.475","SITE":"AFETR","NORAD_CAT_ID":"49762","MEAN_ANOMALY":"56.8255","CLASSIFICATION_TYPE":"U","OBJECT_NAME":"STARLINK-3195","PERIAPSIS":"442.915","EPOCH":"2022-02-17T22:00:00.999936","MEAN_MOTION":"15.40511657","TLE_LINE1":"1 49762U 21115AQ  22048.91667824 -.00074434  00000-0 -18146-2 0  9993","LAUNCH_DATE":"2021-12-02","GP_ID":"196246369","INCLINATION":"53.2178","APOAPSIS":"446.285","MEAN_MOTION_DOT":"-0.00074434","ARG_OF_PERICENTER":"26.0068","OBJECT_ID":"2021-115AQ","BSTAR":"-0.00181460000000"},{"ECCENTRICITY":"0.00023690","REF_FRAME":"TEME","COUNTRY_CODE":"US","CENTER_NAME":"EARTH","FILE":"3305402","ELEMENT_SET_NO":"999","TIME_SYSTEM":"UTC","MEAN_MOTION_DDOT":"0.0000000000000","RA_OF_ASC_NODE":"314.6524","OBJECT_TYPE":"PAYLOAD","TLE_LINE2":"2 49763  53.2178 314.6524 0002369  23.2745  62.7393 15.40487608  3618","DECAY_DATE":null,"REV_AT_EPOCH":"361","ARG_OF_PERICENTER":"23.2745","OBJECT_ID":"2021-115AR","BSTAR":"-0.00121590000000","MEAN_MOTION_DOT":"-0.00050126","APOAPSIS":"446.288","INCLINATION":"53.2178","GP_ID":"196246619","TLE_LINE1":"1 49763U 21115AR  22048.91667824 -.00050126  00000-0 -12159-2 0  9994","MEAN_MOTION":"15.40487608","LAUNCH_DATE":"2021-12-02","EPOCH":"2022-02-17T22:00:00.999936","PERIAPSIS":"443.055","OBJECT_NAME":"STARLINK-3198","MEAN_ANOMALY":"62.7393","CLASSIFICATION_TYPE":"U","NORAD_CAT_ID":"49763","SITE":"AFETR","RCS_SIZE":"LARGE","EPHEMERIS_TYPE":"0","PERIOD":"93.477","SEMIMAJOR_AXIS":"6822.806","MEAN_ELEMENT_THEORY":"SGP4"},{"ECCENTRICITY":"0.00021950","REF_FRAME":"TEME","COUNTRY_CODE":"US","CENTER_NAME":"EARTH","ELEMENT_SET_NO":"999","FILE":"3305402","TIME_SYSTEM":"UTC","MEAN_MOTION_DDOT":"0.0000000000000","RA_OF_ASC_NODE":"314.6591","OBJECT_TYPE":"PAYLOAD","TLE_LINE2":"2 49764  53.2173 314.6591 0002195  27.5962  53.1535 15.40540837  3653","REV_AT_EPOCH":"365","DECAY_DATE":null,"BSTAR":"-0.00145920000000","OBJECT_ID":"2021-115AS","ARG_OF_PERICENTER":"27.5962","MEAN_MOTION_DOT":"-0.00060102","INCLINATION":"53.2173","APOAPSIS":"446.012","GP_ID":"196244867","TLE_LINE1":"1 49764U 21115AS  22048.91667824 -.00060102  00000-0 -14592-2 0  9993","MEAN_MOTION":"15.40540837","LAUNCH_DATE":"2021-12-02","PERIAPSIS":"443.016","EPOCH":"2022-02-17T22:00:00.999936","OBJECT_NAME":"STARLINK-3206","MEAN_ANOMALY":"53.1535","CLASSIFICATION_TYPE":"U","NORAD_CAT_ID":"49764","SITE":"AFETR","RCS_SIZE":"LARGE","EPHEMERIS_TYPE":"0","PERIOD":"93.474","MEAN_ELEMENT_THEORY":"SGP4","SEMIMAJOR_AXIS":"6822.649"},{"EPOCH":"2022-02-17T22:00:00.999936","PERIAPSIS":"443.100","OBJECT_NAME":"STARLINK-3227","MEAN_ANOMALY":"58.3680","CLASSIFICATION_TYPE":"U","NORAD_CAT_ID":"49765","SITE":"AFETR","EPHEMERIS_TYPE":"0","RCS_SIZE":"LARGE","PERIOD":"93.476","MEAN_ELEMENT_THEORY":"SGP4","SEMIMAJOR_AXIS":"6822.755","BSTAR":"-0.00142740000000","OBJECT_ID":"2021-115AT","ARG_OF_PERICENTER":"25.5201","MEAN_MOTION_DOT":"-0.00058742","INCLINATION":"53.2178","APOAPSIS":"446.140","GP_ID":"196245618","TLE_LINE1":"1 49765U 21115AT  22048.91667824 -.00058742  00000-0 -14274-2 0  9998","MEAN_MOTION":"15.40505043","LAUNCH_DATE":"2021-12-02","MEAN_MOTION_DDOT":"0.0000000000000","RA_OF_ASC_NODE":"314.6564","OBJECT_TYPE":"PAYLOAD","TLE_LINE2":"2 49765  53.2178 314.6564 0002228  25.5201  58.3680 15.40505043  3658","REV_AT_EPOCH":"365","DECAY_DATE":null,"ECCENTRICITY":"0.00022280","REF_FRAME":"TEME","COUNTRY_CODE":"US","CENTER_NAME":"EARTH","FILE":"3305402","ELEMENT_SET_NO":"999","TIME_SYSTEM":"UTC"},{"OBJECT_TYPE":"PAYLOAD","TLE_LINE2":"2 49766  53.2173 314.6605 0002936  18.2675  61.4387 15.40513567  3615","DECAY_DATE":null,"REV_AT_EPOCH":"361","MEAN_MOTION_DDOT":"0.0000000000000","RA_OF_ASC_NODE":"314.6605","ELEMENT_SET_NO":"999","FILE":"3305402","TIME_SYSTEM":"UTC","REF_FRAME":"TEME","ECCENTRICITY":"0.00029360","CENTER_NAME":"EARTH","COUNTRY_CODE":"US","SITE":"AFETR","PERIOD":"93.475","EPHEMERIS_TYPE":"0","RCS_SIZE":"LARGE","MEAN_ELEMENT_THEORY":"SGP4","SEMIMAJOR_AXIS":"6822.730","EPOCH":"2022-02-17T22:00:00.999936","PERIAPSIS":"442.591","OBJECT_NAME":"STARLINK-3190","CLASSIFICATION_TYPE":"U","MEAN_ANOMALY":"61.4387","NORAD_CAT_ID":"49766","INCLINATION":"53.2173","APOAPSIS":"446.598","GP_ID":"196245869","LAUNCH_DATE":"2021-12-02","MEAN_MOTION":"15.40513567","TLE_LINE1":"1 49766U 21115AU  22048.91667824 -.00073295  00000-0 -17862-2 0  9995","ARG_OF_PERICENTER":"18.2675","OBJECT_ID":"2021-115AU","BSTAR":"-0.00178620000000","MEAN_MOTION_DOT":"-0.00073295"},{"APOAPSIS":"446.406","INCLINATION":"53.2176","GP_ID":"196246119","LAUNCH_DATE":"2021-12-02","TLE_LINE1":"1 49767U 21115AV  22048.91667824 -.00059537  00000-0 -14472-2 0  9993","MEAN_MOTION":"15.40499597","ARG_OF_PERICENTER":"21.1471","OBJECT_ID":"2021-115AV","BSTAR":"-0.00144720000000","MEAN_MOTION_DOT":"-0.00059537","SITE":"AFETR","PERIOD":"93.476","RCS_SIZE":"LARGE","EPHEMERIS_TYPE":"0","SEMIMAJOR_AXIS":"6822.771","MEAN_ELEMENT_THEORY":"SGP4","EPOCH":"2022-02-17T22:00:00.999936","PERIAPSIS":"442.865","OBJECT_NAME":"STARLINK-3192","CLASSIFICATION_TYPE":"U","MEAN_ANOMALY":"60.6401","NORAD_CAT_ID":"49767","ELEMENT_SET_NO":"999","FILE":"3305402","TIME_SYSTEM":"UTC","REF_FRAME":"TEME","ECCENTRICITY":"0.00025950","CENTER_NAME":"EARTH","COUNTRY_CODE":"US","OBJECT_TYPE":"PAYLOAD","TLE_LINE2":"2 49767  53.2176 314.6594 0002595  21.1471  60.6401 15.40499597  3618","DECAY_DATE":null,"REV_AT_EPOCH":"361","MEAN_MOTION_DDOT":"0.0000000000000","RA_OF_ASC_NODE":"314.6594"},{"LAUNCH_DATE":"2021-12-02","TLE_LINE1":"1 49768U 21115AW  22048.91667824 -.00049808  00000-0 -12080-2 0  9997","MEAN_MOTION":"15.40487315","GP_ID":"196245368","INCLINATION":"53.2171","APOAPSIS":"446.659","MEAN_MOTION_DOT":"-0.00049808","BSTAR":"-0.00120800000000","OBJECT_ID":"2021-115AW","ARG_OF_PERICENTER":"14.6162","SEMIMAJOR_AXIS":"6822.807","MEAN_ELEMENT_THEORY":"SGP4","PERIOD":"93.477","EPHEMERIS_TYPE":"0","RCS_SIZE":"LARGE","SITE":"AFETR","NORAD_CAT_ID":"49768","CLASSIFICATION_TYPE":"U","MEAN_ANOMALY":"62.9987","OBJECT_NAME":"STARLINK-3196","PERIAPSIS":"442.685","EPOCH":"2022-02-17T22:00:00.999936","TIME_SYSTEM":"UTC","ELEMENT_SET_NO":"999","FILE":"3305402","CENTER_NAME":"EARTH","COUNTRY_CODE":"US","REF_FRAME":"TEME","ECCENTRICITY":"0.00029120","REV_AT_EPOCH":"361","TLE_LINE2":"2 49768  53.2171 314.6631 0002912  14.6162  62.9987 15.40487315  3612","DECAY_DATE":null,"OBJECT_TYPE":"PAYLOAD","RA_OF_ASC_NODE":"314.6631","MEAN_MOTION_DDOT":"0.0000000000000"}];
